[{"OBJECT_NAME":"STARLINK-4738","OBJECT_ID":"2022-114B","EPOCH":"2026-03-09T21:22:50.096640","MEAN_MOTION":15.08834472,"ECCENTRICITY":0.00014711,"INCLINATION":53.2177,"RA_OF_ASC_NODE":303.089,"ARG_OF_PERICENTER":78.6071,"MEAN_ANOMALY":281.5086,"EPHEMERIS_TYPE":0,"CLASSIFICATION_TYPE":"U","NORAD_CAT_ID":53819,"ELEMENT_SET_NO":999,"REV_AT_EPOCH":19286,"BSTAR":-2.4494199e-5,"MEAN_MOTION_DOT":-6.78e-6,"MEAN_MOTION_DDOT":0},{"OBJECT_NAME":"CZ-4C R\/B","OBJECT_ID":"2023-149B","EPOCH":"2026-03-09T22:22:25.562784","MEAN_MOTION":14.98980057,"ECCENTRICITY":0.01068179,"INCLINATION":98.1836,"RA_OF_ASC_NODE":72.6086,"ARG_OF_PERICENTER":338.7551,"MEAN_ANOMALY":20.9251,"EPHEMERIS_TYPE":0,"CLASSIFICATION_TYPE":"U","NORAD_CAT_ID":57959,"ELEMENT_SET_NO":999,"REV_AT_EPOCH":13373,"BSTAR":0.00028701864,"MEAN_MOTION_DOT":3.84e-5,"MEAN_MOTION_DDOT":0}]
